[
  {
    "OBJECT_NAME": "STARLINK-5267",
    "OBJECT_ID": "23021AD",
    "EPOCH": "2025-11-10T11:14:57.814944",
    "MEAN_MOTION": 14.9834698,
    "ECCENTRICITY": 0.0002853,
    "INCLINATION": 69.9981,
    "RA_OF_ASC_NODE": 105.165,
    "ARG_OF_PERICENTER": 263.3299,
    "MEAN_ANOMALY": 96.7535,
    "EPHEMERIS_TYPE": 0,
    "CLASSIFICATION_TYPE": "U",
    "NORAD_CAT_ID": 55655,
    "ELEMENT_SET_NO": 999,
    "REV_AT_EPOCH": 15141,
    "BSTAR": 0.00010222000000000001,
    "MEAN_MOTION_DOT": 1.127e-05,
    "MEAN_MOTION_DDOT": 0.0,
    "TLE_LINE1": "1 55655U 23021AD  25314.46872471  .00001127  00000+0  10222-3 0  9998",
    "TLE_LINE2": "2 55655  69.9981 105.1650 0002853 263.3299  96.7535 14.98346980151419",
    "COMMENT": "Grouped by shell and plane from TLE"
  },
  {
    "OBJECT_NAME": "STARLINK-5328",
    "OBJECT_ID": "23021AF",
    "EPOCH": "2025-11-11T03:28:19.367040",
    "MEAN_MOTION": 14.98331604,
    "ECCENTRICITY": 0.0002909,
    "INCLINATION": 69.9978,
    "RA_OF_ASC_NODE": 103.5117,
    "ARG_OF_PERICENTER": 270.3149,
    "MEAN_ANOMALY": 89.7677,
    "EPHEMERIS_TYPE": 0,
    "CLASSIFICATION_TYPE": "U",
    "NORAD_CAT_ID": 55657,
    "ELEMENT_SET_NO": 999,
    "REV_AT_EPOCH": 15152,
    "BSTAR": 3.4445e-05,
    "MEAN_MOTION_DOT": 3.18e-06,
    "MEAN_MOTION_DDOT": 0.0,
    "TLE_LINE1": "1 55657U 23021AF  25315.14466860  .00000318  00000+0  34445-4 0  9992",
    "TLE_LINE2": "2 55657  69.9978 103.5117 0002909 270.3149  89.7677 14.98331604151529",
    "COMMENT": "Grouped by shell and plane from TLE"
  },
  {
    "OBJECT_NAME": "STARLINK-5477",
    "OBJECT_ID": "23021AH",
    "EPOCH": "2025-11-11T03:22:18.610752",
    "MEAN_MOTION": 14.98333508,
    "ECCENTRICITY": 0.0003063,
    "INCLINATION": 69.9996,
    "RA_OF_ASC_NODE": 103.4968,
    "ARG_OF_PERICENTER": 270.0513,
    "MEAN_ANOMALY": 90.0295,
    "EPHEMERIS_TYPE": 0,
    "CLASSIFICATION_TYPE": "U",
    "NORAD_CAT_ID": 55659,
    "ELEMENT_SET_NO": 999,
    "REV_AT_EPOCH": 15151,
    "BSTAR": 2.6231e-05,
    "MEAN_MOTION_DOT": 2.2e-06,
    "MEAN_MOTION_DDOT": 0.0,
    "TLE_LINE1": "1 55659U 23021AH  25315.14049318  .00000220  00000+0  26231-4 0  9995",
    "TLE_LINE2": "2 55659  69.9996 103.4968 0003063 270.0513  90.0295 14.98333508151513",
    "COMMENT": "Grouped by shell and plane from TLE"
  },
  {
    "OBJECT_NAME": "STARLINK-5467",
    "OBJECT_ID": "23021AJ",
    "EPOCH": "2025-11-11T03:46:18.766560",
    "MEAN_MOTION": 14.98331003,
    "ECCENTRICITY": 0.0003233,
    "INCLINATION": 69.9977,
    "RA_OF_ASC_NODE": 103.1613,
    "ARG_OF_PERICENTER": 268.7535,
    "MEAN_ANOMALY": 91.3254,
    "EPHEMERIS_TYPE": 0,
    "CLASSIFICATION_TYPE": "U",
    "NORAD_CAT_ID": 55660,
    "ELEMENT_SET_NO": 999,
    "REV_AT_EPOCH": 15153,
    "BSTAR": 5.588600000000001e-05,
    "MEAN_MOTION_DOT": 5.74e-06,
    "MEAN_MOTION_DDOT": 0.0,
    "TLE_LINE1": "1 55660U 23021AJ  25315.15716165  .00000574  00000+0  55886-4 0  9999",
    "TLE_LINE2": "2 55660  69.9977 103.1613 0003233 268.7535  91.3254 14.98331003151534",
    "COMMENT": "Grouped by shell and plane from TLE"
  },
  {
    "OBJECT_NAME": "STARLINK-5475",
    "OBJECT_ID": "23021AK",
    "EPOCH": "2025-11-10T20:33:44.545248",
    "MEAN_MOTION": 14.9832089,
    "ECCENTRICITY": 0.0003268,
    "INCLINATION": 69.9983,
    "RA_OF_ASC_NODE": 104.111,
    "ARG_OF_PERICENTER": 266.6291,
    "MEAN_ANOMALY": 93.4494,
    "EPHEMERIS_TYPE": 0,
    "CLASSIFICATION_TYPE": "U",
    "NORAD_CAT_ID": 55661,
    "ELEMENT_SET_NO": 999,
    "REV_AT_EPOCH": 15148,
    "BSTAR": 0.00011756,
    "MEAN_MOTION_DOT": 1.31e-05,
    "MEAN_MOTION_DDOT": 0.0,
    "TLE_LINE1": "1 55661U 23021AK  25314.85676557  .00001310  00000+0  11756-3 0  9992",
    "TLE_LINE2": "2 55661  69.9983 104.1110 0003268 266.6291  93.4494 14.98320890151484",
    "COMMENT": "Grouped by shell and plane from TLE"
  },
  {
    "OBJECT_NAME": "STARLINK-5479",
    "OBJECT_ID": "23021AL",
    "EPOCH": "2025-11-11T03:46:16.719744",
    "MEAN_MOTION": 14.97524944,
    "ECCENTRICITY": 0.0003255,
    "INCLINATION": 69.9977,
    "RA_OF_ASC_NODE": 102.7788,
    "ARG_OF_PERICENTER": 269.0743,
    "MEAN_ANOMALY": 91.0043,
    "EPHEMERIS_TYPE": 0,
    "CLASSIFICATION_TYPE": "U",
    "NORAD_CAT_ID": 55662,
    "ELEMENT_SET_NO": 999,
    "REV_AT_EPOCH": 15154,
    "BSTAR": 3.0998e-05,
    "MEAN_MOTION_DOT": 2.7e-06,
    "MEAN_MOTION_DDOT": 0.0,
    "TLE_LINE1": "1 55662U 23021AL  25315.15713796  .00000270  00000+0  30998-4 0  9998",
    "TLE_LINE2": "2 55662  69.9977 102.7788 0003255 269.0743  91.0043 14.97524944151544",
    "COMMENT": "Grouped by shell and plane from TLE"
  },
  {
    "OBJECT_NAME": "STARLINK-5473",
    "OBJECT_ID": "23021AM",
    "EPOCH": "2025-11-11T02:46:14.807424",
    "MEAN_MOTION": 14.98331456,
    "ECCENTRICITY": 0.0003533,
    "INCLINATION": 69.9983,
    "RA_OF_ASC_NODE": 103.4077,
    "ARG_OF_PERICENTER": 268.517,
    "MEAN_ANOMALY": 91.5584,
    "EPHEMERIS_TYPE": 0,
    "CLASSIFICATION_TYPE": "U",
    "NORAD_CAT_ID": 55663,
    "ELEMENT_SET_NO": 999,
    "REV_AT_EPOCH": 15151,
    "BSTAR": 5.1851000000000006e-06,
    "MEAN_MOTION_DOT": -3.1e-07,
    "MEAN_MOTION_DDOT": 0.0,
    "TLE_LINE1": "1 55663U 23021AM  25315.11544916 -.00000031  00000+0  51851-5 0  9999",
    "TLE_LINE2": "2 55663  69.9983 103.4077 0003533 268.5170  91.5584 14.98331456151515",
    "COMMENT": "Grouped by shell and plane from TLE"
  },
  {
    "OBJECT_NAME": "STARLINK-5480",
    "OBJECT_ID": "23021AN",
    "EPOCH": "2025-11-11T03:10:18.096096",
    "MEAN_MOTION": 14.98339038,
    "ECCENTRICITY": 0.0003255,
    "INCLINATION": 69.9986,
    "RA_OF_ASC_NODE": 103.4676,
    "ARG_OF_PERICENTER": 280.1355,
    "MEAN_ANOMALY": 79.9437,
    "EPHEMERIS_TYPE": 0,
    "CLASSIFICATION_TYPE": "U",
    "NORAD_CAT_ID": 55664,
    "ELEMENT_SET_NO": 999,
    "REV_AT_EPOCH": 15152,
    "BSTAR": 0.00015901,
    "MEAN_MOTION_DOT": 1.805e-05,
    "MEAN_MOTION_DDOT": 0.0,
    "TLE_LINE1": "1 55664U 23021AN  25315.13215389  .00001805  00000+0  15901-3 0  9994",
    "TLE_LINE2": "2 55664  69.9986 103.4676 0003255 280.1355  79.9437 14.98339038151522",
    "COMMENT": "Grouped by shell and plane from TLE"
  },
  {
    "OBJECT_NAME": "STARLINK-5474",
    "OBJECT_ID": "23021AP",
    "EPOCH": "2025-11-10T17:03:25.566912",
    "MEAN_MOTION": 14.98336746,
    "ECCENTRICITY": 0.0002852,
    "INCLINATION": 69.9988,
    "RA_OF_ASC_NODE": 104.4056,
    "ARG_OF_PERICENTER": 271.2849,
    "MEAN_ANOMALY": 88.7983,
    "EPHEMERIS_TYPE": 0,
    "CLASSIFICATION_TYPE": "U",
    "NORAD_CAT_ID": 55665,
    "ELEMENT_SET_NO": 999,
    "REV_AT_EPOCH": 15146,
    "BSTAR": 4.9101e-05,
    "MEAN_MOTION_DOT": 4.93e-06,
    "MEAN_MOTION_DDOT": 0.0,
    "TLE_LINE1": "1 55665U 23021AP  25314.71071258  .00000493  00000+0  49101-4 0  9995",
    "TLE_LINE2": "2 55665  69.9988 104.4056 0002852 271.2849  88.7983 14.98336746151469",
    "COMMENT": "Grouped by shell and plane from TLE"
  },
  {
    "OBJECT_NAME": "STARLINK-5456",
    "OBJECT_ID": "23021AR",
    "EPOCH": "2025-11-10T16:45:23.711904",
    "MEAN_MOTION": 14.98334103,
    "ECCENTRICITY": 0.0003102,
    "INCLINATION": 69.9984,
    "RA_OF_ASC_NODE": 104.3619,
    "ARG_OF_PERICENTER": 270.0043,
    "MEAN_ANOMALY": 90.076,
    "EPHEMERIS_TYPE": 0,
    "CLASSIFICATION_TYPE": "U",
    "NORAD_CAT_ID": 55667,
    "ELEMENT_SET_NO": 999,
    "REV_AT_EPOCH": 15146,
    "BSTAR": 7.898300000000001e-05,
    "MEAN_MOTION_DOT": 8.5e-06,
    "MEAN_MOTION_DDOT": 0.0,
    "TLE_LINE1": "1 55667U 23021AR  25314.69819111  .00000850  00000+0  78983-4 0  9999",
    "TLE_LINE2": "2 55667  69.9984 104.3619 0003102 270.0043  90.0760 14.98334103151467",
    "COMMENT": "Grouped by shell and plane from TLE"
  },
  {
    "OBJECT_NAME": "STARLINK-5455",
    "OBJECT_ID": "23021AS",
    "EPOCH": "2025-11-11T03:04:16.488768",
    "MEAN_MOTION": 14.98332495,
    "ECCENTRICITY": 0.0003022,
    "INCLINATION": 69.9981,
    "RA_OF_ASC_NODE": 103.4517,
    "ARG_OF_PERICENTER": 271.904,
    "MEAN_ANOMALY": 88.1773,
    "EPHEMERIS_TYPE": 0,
    "CLASSIFICATION_TYPE": "U",
    "NORAD_CAT_ID": 55668,
    "ELEMENT_SET_NO": 999,
    "REV_AT_EPOCH": 15151,
    "BSTAR": 2.0234e-05,
    "MEAN_MOTION_DOT": 1.48e-06,
    "MEAN_MOTION_DDOT": 0.0,
    "TLE_LINE1": "1 55668U 23021AS  25315.12796862  .00000148  00000+0  20234-4 0  9992",
    "TLE_LINE2": "2 55668  69.9981 103.4517 0003022 271.9040  88.1773 14.98332495151510",
    "COMMENT": "Grouped by shell and plane from TLE"
  },
  {
    "OBJECT_NAME": "STARLINK-5459",
    "OBJECT_ID": "23021AT",
    "EPOCH": "2025-11-11T02:52:13.898784",
    "MEAN_MOTION": 14.98358133,
    "ECCENTRICITY": 0.0003903,
    "INCLINATION": 69.9975,
    "RA_OF_ASC_NODE": 103.4221,
    "ARG_OF_PERICENTER": 267.9921,
    "MEAN_ANOMALY": 92.0791,
    "EPHEMERIS_TYPE": 0,
    "CLASSIFICATION_TYPE": "U",
    "NORAD_CAT_ID": 55669,
    "ELEMENT_SET_NO": 999,
    "REV_AT_EPOCH": 15151,
    "BSTAR": 0.00038216,
    "MEAN_MOTION_DOT": 4.473e-05,
    "MEAN_MOTION_DDOT": 0.0,
    "TLE_LINE1": "1 55669U 23021AT  25315.11960531  .00004473  00000+0  38216-3 0  9991",
    "TLE_LINE2": "2 55669  69.9975 103.4221 0003903 267.9921  92.0791 14.98358133151518",
    "COMMENT": "Grouped by shell and plane from TLE"
  },
  {
    "OBJECT_NAME": "STARLINK-5423",
    "OBJECT_ID": "23021AU",
    "EPOCH": "2025-11-10T20:09:41.844096",
    "MEAN_MOTION": 14.98327759,
    "ECCENTRICITY": 0.0002715,
    "INCLINATION": 69.9991,
    "RA_OF_ASC_NODE": 104.053,
    "ARG_OF_PERICENTER": 271.1922,
    "MEAN_ANOMALY": 88.8926,
    "EPHEMERIS_TYPE": 0,
    "CLASSIFICATION_TYPE": "U",
    "NORAD_CAT_ID": 55670,
    "ELEMENT_SET_NO": 999,
    "REV_AT_EPOCH": 15148,
    "BSTAR": 2.628e-05,
    "MEAN_MOTION_DOT": 2.21e-06,
    "MEAN_MOTION_DDOT": 0.0,
    "TLE_LINE1": "1 55670U 23021AU  25314.84006764  .00000221  00000+0  26280-4 0  9997",
    "TLE_LINE2": "2 55670  69.9991 104.0530 0002715 271.1922  88.8926 14.98327759151485",
    "COMMENT": "Grouped by shell and plane from TLE"
  }
]